ORBCOMM FM103           
1 40091U 14040F   25020.91923563  .00002418  00000+0  56113-3 0  9993
2 40091  47.0063 353.0847 0002648 318.7716  41.2969 14.57714924542612
ORBCOMM FM114           
1 41179U 15081A   25020.87751219  .00001702  00000+0  40538-3 0  9998
2 41179  47.0021 262.4247 0001888  29.7635 330.3357 14.57778928482974
ORBCOMM FM119           
1 41180U 15081B   25020.85785151  .00002095  00000+0  49120-3 0  9992
2 41180  46.9992 171.7702 0000781 151.8179 208.2748 14.57687542484228
ORBCOMM FM105           
1 41181U 15081C   25020.74902750  .00000928  00000+0  30855-3 0  9995
2 41181  47.0004 163.0088 0001246 355.3068   4.7800 14.44980518479420
ORBCOMM FM110           
1 41182U 15081D   25021.05814693  .00002124  00000+0  49594-3 0  9999
2 41182  47.0001 260.9356 0001618 190.6435 169.4416 14.57839192483055
ORBCOMM FM118           
1 41183U 15081E   25021.10835779  .00002154  00000+0  50327-3 0  9993
2 41183  47.0025 261.1051 0002078 186.3020 173.7839 14.57765780483069
ORBCOMM FM112           
1 41184U 15081F   25020.83432585  .00002833  00000+0  65161-3 0  9997
2 41184  46.9968 171.0530 0000112 157.9753 202.1137 14.57668715484215
ORBCOMM FM113           
1 41185U 15081G   25020.87964004  .00002990  00000+0  68442-3 0  9997
2 41185  46.9988 171.1412 0000799 158.7081 201.3837 14.57753011484157
